STARLINK-2725           
1 48681U 21044AV  26068.26086667  .00007137  00000+0  25291-3 0  9990
2 48681  53.1605  77.2652 0001238  98.8820 261.2321 15.30195858264292
STARLINK-30327          
1 57707U 23129K   26068.51769668  .00007635  00000+0  29314-3 0  9995
2 57707  42.9974  85.9834 0023030  70.8320 289.5022 15.26626807140903
